BEESAT-4                
1 41619U 16040W   21217.38823284  .00002276  00000-0  91758-4 0  9994
2 41619  97.2666 272.1059 0011509 150.5216 209.6674 15.25772782272473
CAS-2T & KS-1Q          
1 41847U 16066G   21217.45429573  .00000141  00000-0  30607-4 0  9991
2 41847  98.5979 276.7770 0366248  74.1996 289.9250 14.38221244248925
NAYIF-1 (EO-88)         
1 42017U 17008BX  21217.46944073  .00002406  00000-0  89501-4 0  9999
2 42017  97.3134 284.1925 0004305 302.9891  57.0935 15.28462620248748
ZHUHAI-1 02 (CAS-4B)    
1 42759U 17034B   21217.51043852  .00000307  00000-0  31740-4 0  9992
2 42759  43.0174 271.3713 0007029 110.4541  30.1965 15.10296821228568
ZHUHAI-1 01 (CAS-4A)    
1 42761U 17034D   21217.49835410  .00000362  00000-0  34953-4 0  9991
2 42761  43.0171 270.4552 0007327 112.3869  27.1108 15.10384990228564
MAX VALIER SAT          
1 42778U 17036P   21217.36086893  .00001465  00000-0  63619-4 0  9996
2 42778  97.2517 264.3629 0011966  12.9424 347.2118 15.23783708228730
RADFXSAT (FOX-1B)       
1 43017U 17073E   21217.49921163  .00000599  00000-0  50927-4 0  9991
2 43017  97.7020 119.5365 0255561 140.0949 221.9364 14.79625504200375
FOX-1D (AO-92)          
1 43137U 18004AC  21217.46768210  .00001589  00000-0  65630-4 0  9995
2 43137  97.4047 290.9982 0009850  46.9709 313.2353 15.25447108198136
DIWATA-2B               
1 43678U 18084H   21217.55315977 -.00000290  00000-0 -22997-4 0  9990
2 43678  97.9299 343.1002 0008471 246.5070 113.5245 14.91768278150754
ES'HAIL 2               
1 43700U 18090A   21217.51594936  .00000147  00000-0  00000-0 0  9999
2 43700   0.0134  92.8860 0001855  90.3616 342.5392  1.00273303  9861
FOX-1CLIFF (AO-95)      
1 43770U 18099N   21217.43195310  .00000034  00000-0  82425-5 0  9990
2 43770  97.6628 286.5326 0013008 252.1737 107.8066 14.95379175145775
ITASAT 1                
1 43786U 18099AE  21216.73957254  .00000790  00000-0  76065-4 0  9993
2 43786  97.6646 286.5673 0013683 246.4312 113.5472 14.95663856145701
JY1SAT (JO-97)          
1 43803U 18099AX  21217.43107733  .00000084  00000-0  12643-4 0  9998
2 43803  97.6610 286.9904 0013600 244.3452 115.6365 14.95924173145812
UWE-4                   
1 43880U 18111E   21217.31495427 -.00000099  00000-0 -35916-5 0  9992
2 43880  97.6833 124.2084 0011041 306.2296  53.7905 14.96932089142396
NEXUS (FO-99)           
1 43937U 19003F   21217.37503614  .00001956  00000-0  78346-4 0  9994
2 43937  97.1732 258.5933 0022594 194.4740 165.5855 15.25969178141726
PSAT2 (NO-104)          
1 44354U 19036R   21217.53495920  .00014915  00000-0  19107-3 0  9990
2 44354  28.5250 159.4016 0318927  88.8667 274.8441 15.15348666116422
BRICSAT2 (NO-103)       
1 44355U 19036S   21216.03600080  .00033513 -57287-5  33146-3 0  9999
2 44355  28.5255 116.0962 0249023 159.4537 201.6278 15.33540392116738
JAISAT-1                
1 44419U 19038F   21217.55147135  .00001181  00000-0  68616-4 0  9999
2 44419  97.5915 182.0851 0022014 139.4260 220.8617 15.13907574115228
DUCHIFAT-3              
1 44854U 19089C   21217.20229915  .00000538  00000-0  49263-4 0  9999
2 44854  36.9649 172.3300 0007584 180.9713 179.1004 14.99561293 90429
CAS-6 (TO-108)          
1 44881U 19093C   21217.43530679  .00000065  00000-0  15004-4 0  9992
2 44881  97.9232 295.7286 0016143 130.3355 229.9265 14.81468473 87986
RS-44 & BREEZE-KM R/B   
1 44909U 19096E   21217.33456783  .00000016  00000-0  24045-4 0  9999
2 44909  82.5192  80.3343 0217128 339.1287  20.1049 12.79710816 75077
ORBITAL FACTORY 2 (OF-2)
1 45113U 19071C   21216.22746194  .00003131  00000-0  98323-4 0  9996
2 45113  51.6407 165.8139 0012428 104.9148 255.3212 15.36122855 84512
HUSKYSAT-1 (HO-107)     
1 45119U 19071J   21217.53954166  .00002407  00000-0  78125-4 0  9990
2 45119  51.6408 158.8190 0011851 106.1306 254.0983 15.36132760 84716
BY70-2                  
1 45857U 20042B   21217.48652640  .00001203  00000-0  17712-3 0  9992
2 45857  97.9835 292.7271 0012365  62.3266 297.9190 14.77167274 58785
SALSAT                  
1 46495U 20068K   21217.57769090  .00000857  00000-0  67288-4 0  9995
2 46495  97.6931 154.7857 0015752 267.5876  92.3552 15.03501684 46710
BY70-3                  
1 46839U 20079N   21217.51308181  .00003205  00000-0  99591-4 0  9995
2 46839  97.2379 290.3992 0008169  42.0458  86.7380 15.34033829 41724
RADFXSAT-2 (AO-109)     
1 47311U 21002C   21217.44010759  .00001830  00000-0  90328-4 0  9992
2 47311  60.6850 107.7956 0041449  73.4168 287.1464 15.21818531 30324
UVSQ-SAT                
1 47438U 21006AB  21217.44787340  .00000951  00000-0  57090-4 0  9995
2 47438  97.4843 277.7893 0011118 291.6361  68.3686 15.13253940 29467
DIY-1 (ARDUIQUBE)       
1 47963U 21022AH  21217.55134024  .00002535  00000-0  17048-3 0  9991
2 47963  97.5539 119.0133 0020535 133.2103 227.0844 15.07475927 19290
